CTC2_L_00156001-01
1 51781U 23019EJ  26070.40843750  .00000000  00000+0  00000-0 0  9992
2 51781  60.0000   0.0000 0000000   0.0000   0.0000 14.98995063    15
CTC2_L_00156001-02
1 51782U 26644OF  26070.40843750  .00000000  00000+0  00000-0 0  9990
2 51782  60.0000   0.0000 0000000   0.0000  90.0000 14.98995063    15
CTC2_L_00156001-03
1 51783U 26180TY  26070.40843750  .00000000  00000+0  00000-0 0  9996
2 51783  60.0000   0.0000 0000000   0.0000 180.0000 14.98995063    16
CTC2_L_00156001-04
1 51784U 26878OV  26070.40843750  .00000000  00000+0  00000-0 0  9991
2 51784  60.0000   0.0000 0000000   0.0000 270.0000 14.98995063    17
CTC2_L_00156002-01
1 51785U 25870RX  26070.40843750  .00000000  00000+0  00000-0 0  9993
2 51785  60.0000  12.0000 0000000   0.0000  12.0000 14.98995063    15
CTC2_L_00156002-02
1 51786U 25439IK  26070.40843750  .00000000  00000+0  00000-0 0  9995
2 51786  60.0000  12.0000 0000000   0.0000 102.0000 14.98995063    16
CTC2_L_00156002-03
1 51787U 25624IT  26070.40843750  .00000000  00000+0  00000-0 0  9992
2 51787  60.0000  12.0000 0000000   0.0000 192.0000 14.98995063    16
CTC2_L_00156002-04
1 51788U 26519DJ  26070.40843750  .00000000  00000+0  00000-0 0  9997
2 51788  60.0000  12.0000 0000000   0.0000 282.0000 14.98995063    17
CTC2_L_00156003-01
1 51789U 26559YP  26070.40843750  .00000000  00000+0  00000-0 0  9992
2 51789  60.0000  24.0000 0000000   0.0000  24.0000 14.98995063    15
CTC2_L_00156003-02
1 51790U 23047NR  26070.40843750  .00000000  00000+0  00000-0 0  9993
2 51790  60.0000  24.0000 0000000   0.0000 114.0000 14.98995063    17
CTC2_L_00156003-03
1 51791U 25542CB  26070.40843750  .00000000  00000+0  00000-0 0  9996
2 51791  60.0000  24.0000 0000000   0.0000 204.0000 14.98995063    18
CTC2_L_00156003-04
1 51792U 26237OU  26070.40843750  .00000000  00000+0  00000-0 0  9999
2 51792  60.0000  24.0000 0000000   0.0000 294.0000 14.98995063    18
CTC2_L_00156004-01
1 51793U 24373FA  26070.40843750  .00000000  00000+0  00000-0 0  9999
2 51793  60.0000  36.0000 0000000   0.0000  36.0000 14.98995063    16
CTC2_L_00156004-02
1 51794U 24631WJ  26070.40843750  .00000000  00000+0  00000-0 0  9997
2 51794  60.0000  36.0000 0000000   0.0000 126.0000 14.98995063    17
CTC2_L_00156004-03
1 51795U 23554SM  26070.40843750  .00000000  00000+0  00000-0 0  9991
2 51795  60.0000  36.0000 0000000   0.0000 216.0000 14.98995063    18
CTC2_L_00156004-04
1 51796U 26702FQ  26070.40843750  .00000000  00000+0  00000-0 0  9990
2 51796  60.0000  36.0000 0000000   0.0000 306.0000 14.98995063    19
CTC2_L_00156005-01
1 51797U 25505FY  26070.40843750  .00000000  00000+0  00000-0 0  9991
2 51797  60.0000  48.0000 0000000   0.0000  48.0000 14.98995063    16
CTC2_L_00156005-02
1 51798U 23497NS  26070.40843750  .00000000  00000+0  00000-0 0  9990
2 51798  60.0000  48.0000 0000000   0.0000 138.0000 14.98995063    17
CTC2_L_00156005-03
1 51799U 26609NU  26070.40843750  .00000000  00000+0  00000-0 0  9999
2 51799  60.0000  48.0000 0000000   0.0000 228.0000 14.98995063    18
CTC2_L_00156005-04
1 51800U 24759HF  26070.40843750  .00000000  00000+0  00000-0 0  9996
2 51800  60.0000  48.0000 0000000   0.0000 318.0000 14.98995063    11
CTC2_L_00156006-01
1 51801U 25614UL  26070.40843750  .00000000  00000+0  00000-0 0  9998
2 51801  60.0000  60.0000 0000000   0.0000  60.0000 14.98995063    10
CTC2_L_00156006-02
1 51802U 26714HW  26070.40843750  .00000000  00000+0  00000-0 0  9991
2 51802  60.0000  60.0000 0000000   0.0000 150.0000 14.98995063    11
CTC2_L_00156006-03
1 51803U 22445ZQ  26070.40843750  .00000000  00000+0  00000-0 0  9999
2 51803  60.0000  60.0000 0000000   0.0000 240.0000 14.98995063    12
CTC2_L_00156006-04
1 51804U 22809LZ  26070.40843750  .00000000  00000+0  00000-0 0  9994
2 51804  60.0000  60.0000 0000000   0.0000 330.0000 14.98995063    13
CTC2_L_00156007-01
1 51805U 22389EA  26070.40843750  .00000000  00000+0  00000-0 0  9998
2 51805  60.0000  72.0000 0000000   0.0000  72.0000 14.98995063    10
CTC2_L_00156007-02
1 51806U 26035IO  26070.40843750  .00000000  00000+0  00000-0 0  9991
2 51806  60.0000  72.0000 0000000   0.0000 162.0000 14.98995063    11
CTC2_L_00156007-03
1 51807U 26244BW  26070.40843750  .00000000  00000+0  00000-0 0  9994
2 51807  60.0000  72.0000 0000000   0.0000 252.0000 14.98995063    12
CTC2_L_00156007-04
1 51808U 24663ZW  26070.40843750  .00000000  00000+0  00000-0 0  9998
2 51808  60.0000  72.0000 0000000   0.0000 342.0000 14.98995063    13
CTC2_L_00156008-01
1 51809U 22296TC  26070.40843750  .00000000  00000+0  00000-0 0  9999
2 51809  60.0000  84.0000 0000000   0.0000  84.0000 14.98995063    10
CTC2_L_00156008-02
1 51810U 26157UR  26070.40843750  .00000000  00000+0  00000-0 0  9991
2 51810  60.0000  84.0000 0000000   0.0000 174.0000 14.98995063    12
CTC2_L_00156008-03
1 51811U 23807JT  26070.40843750  .00000000  00000+0  00000-0 0  9991
2 51811  60.0000  84.0000 0000000   0.0000 264.0000 14.98995063    13
CTC2_L_00156008-04
1 51812U 26739SB  26070.40843750  .00000000  00000+0  00000-0 0  9999
2 51812  60.0000  84.0000 0000000   0.0000 354.0000 14.98995063    14
CTC2_L_00156009-01
1 51813U 23418NI  26070.40843750  .00000000  00000+0  00000-0 0  9991
2 51813  60.0000  96.0000 0000000   0.0000  96.0000 14.98995063    11
CTC2_L_00156009-02
1 51814U 25797HI  26070.40843750  .00000000  00000+0  00000-0 0  9994
2 51814  60.0000  96.0000 0000000   0.0000 186.0000 14.98995063    12
CTC2_L_00156009-03
1 51815U 26419YJ  26070.40843750  .00000000  00000+0  00000-0 0  9997
2 51815  60.0000  96.0000 0000000   0.0000 276.0000 14.98995063    13
CTC2_L_00156009-04
1 51816U 26558YO  26070.40843750  .00000000  00000+0  00000-0 0  9992
2 51816  60.0000  96.0000 0000000   0.0000   6.0000 14.98995063    15
CTC2_L_00156010-01
1 51817U 25491KN  26070.40843750  .00000000  00000+0  00000-0 0  9998
2 51817  60.0000 108.0000 0000000   0.0000 108.0000 14.98995063    13
CTC2_L_00156010-02
1 51818U 25592QQ  26070.40843750  .00000000  00000+0  00000-0 0  9991
2 51818  60.0000 108.0000 0000000   0.0000 198.0000 14.98995063    13
CTC2_L_00156010-03
1 51819U 25128KF  26070.40843750  .00000000  00000+0  00000-0 0  9997
2 51819  60.0000 108.0000 0000000   0.0000 288.0000 14.98995063    14
CTC2_L_00156010-04
1 51820U 25234RN  26070.40843750  .00000000  00000+0  00000-0 0  9997
2 51820  60.0000 108.0000 0000000   0.0000  18.0000 14.98995063    17
CTC2_L_00156011-01
1 51821U 24423XI  26070.40843750  .00000000  00000+0  00000-0 0  9997
2 51821  60.0000 120.0000 0000000   0.0000 120.0000 14.98995063    16
CTC2_L_00156011-02
1 51822U 22258NG  26070.40843750  .00000000  00000+0  00000-0 0  9992
2 51822  60.0000 120.0000 0000000   0.0000 210.0000 14.98995063    17
CTC2_L_00156011-03
1 51823U 24659JB  26070.40843750  .00000000  00000+0  00000-0 0  9990
2 51823  60.0000 120.0000 0000000   0.0000 300.0000 14.98995063    18
CTC2_L_00156011-04
1 51824U 24512AL  26070.40843750  .00000000  00000+0  00000-0 0  9999
2 51824  60.0000 120.0000 0000000   0.0000  30.0000 14.98995063    19
CTC2_L_00156012-01
1 51825U 24669UY  26070.40843750  .00000000  00000+0  00000-0 0  9993
2 51825  60.0000 132.0000 0000000   0.0000 132.0000 14.98995063    16
CTC2_L_00156012-02
1 51826U 26139OL  26070.40843750  .00000000  00000+0  00000-0 0  9998
2 51826  60.0000 132.0000 0000000   0.0000 222.0000 14.98995063    17
CTC2_L_00156012-03
1 51827U 23259XW  26070.40843750  .00000000  00000+0  00000-0 0  9999
2 51827  60.0000 132.0000 0000000   0.0000 312.0000 14.98995063    18
CTC2_L_00156012-04
1 51828U 26251VT  26070.40843750  .00000000  00000+0  00000-0 0  9995
2 51828  60.0000 132.0000 0000000   0.0000  42.0000 14.98995063    19
CTC2_L_00156013-01
1 51829U 24730IL  26070.40843750  .00000000  00000+0  00000-0 0  9996
2 51829  60.0000 144.0000 0000000   0.0000 144.0000 14.98995063    16
CTC2_L_00156013-02
1 51830U 26683GG  26070.40843750  .00000000  00000+0  00000-0 0  9997
2 51830  60.0000 144.0000 0000000   0.0000 234.0000 14.98995063    18
CTC2_L_00156013-03
1 51831U 25090JB  26070.40843750  .00000000  00000+0  00000-0 0  9999
2 51831  60.0000 144.0000 0000000   0.0000 324.0000 14.98995063    19
CTC2_L_00156013-04
1 51832U 23749BA  26070.40843750  .00000000  00000+0  00000-0 0  9999
2 51832  60.0000 144.0000 0000000   0.0000  54.0000 14.98995063    10
CTC2_L_00156014-01
1 51833U 23876GU  26070.40843750  .00000000  00000+0  00000-0 0  9991
2 51833  60.0000 156.0000 0000000   0.0000 156.0000 14.98995063    17
CTC2_L_00156014-02
1 51834U 24343DI  26070.40843750  .00000000  00000+0  00000-0 0  9992
2 51834  60.0000 156.0000 0000000   0.0000 246.0000 14.98995063    18
CTC2_L_00156014-03
1 51835U 23225UV  26070.40843750  .00000000  00000+0  00000-0 0  9991
2 51835  60.0000 156.0000 0000000   0.0000 336.0000 14.98995063    19
CTC2_L_00156014-04
1 51836U 24966OH  26070.40843750  .00000000  00000+0  00000-0 0  9995
2 51836  60.0000 156.0000 0000000   0.0000  66.0000 14.98995063    10
CTC2_L_00156015-01
1 51837U 26776UZ  26070.40843750  .00000000  00000+0  00000-0 0  9997
2 51837  60.0000 168.0000 0000000   0.0000 168.0000 14.98995063    17
CTC2_L_00156015-02
1 51838U 25248CX  26070.40843750  .00000000  00000+0  00000-0 0  9991
2 51838  60.0000 168.0000 0000000   0.0000 258.0000 14.98995063    18
CTC2_L_00156015-03
1 51839U 23984VE  26070.40843750  .00000000  00000+0  00000-0 0  9997
2 51839  60.0000 168.0000 0000000   0.0000 348.0000 14.98995063    19
CTC2_L_00156015-04
1 51840U 25221IW  26070.40843750  .00000000  00000+0  00000-0 0  9995
2 51840  60.0000 168.0000 0000000   0.0000  78.0000 14.98995063    11
CTC2_L_00156016-01
1 51841U 25914NP  26070.40843750  .00000000  00000+0  00000-0 0  9995
2 51841  60.0000 180.0000 0000000   0.0000 180.0000 14.98995063    10
CTC2_L_00156016-02
1 51842U 23297CF  26070.40843750  .00000000  00000+0  00000-0 0  9998
2 51842  60.0000 180.0000 0000000   0.0000 270.0000 14.98995063    11
